EUTELSAT 7A             
1 28187U 04008A   25287.60157381  .00000092  00000+0  00000+0 0  9992
2 28187   5.2043  74.9220 0001470 174.5295 211.3133  1.00271070 78895
EUTELSAT 174A           
1 28924U 05052A   25287.80642079 -.00000002  00000+0  00000+0 0  9998
2 28924   3.5953  79.5505 0006411 129.0989 279.2912  1.00273371 49877
EUTELSAT HOTBIRD 13B    
1 29270U 06032A   25287.92116796  .00000142  00000+0  00000+0 0  9991
2 29270   1.0245  84.8716 0004120 114.1849 189.4068  1.00267796 44847
EUTELSAT HOTBIRD 13C    
1 33459U 08065A   25287.91215459 -.00000113  00000+0  00000+0 0  9997
2 33459   2.3168  82.0708 0005867 145.1619 112.3651  1.00271733 44881
EUTELSAT 36B            
1 36101U 09065A   25287.92463464  .00000098  00000+0  00000+0 0  9998
2 36101   0.0479  21.1414 0006113 188.9589 196.9738  1.00271454 58241
EUTELSAT KA-SAT 9A      
1 37258U 10069A   25287.63095395  .00000048  00000+0  00000+0 0  9995
2 37258   0.0575 322.8244 0002725 209.3700  87.4054  1.00273092 41542
EUTELSAT 7 WEST A       
1 37816U 11051A   25287.91319459 -.00000074  00000+0  00000+0 0  9998
2 37816   0.0769  33.5545 0006539 170.2531 141.3600  1.00272339 51420
EUTELSAT 16A            
1 37836U 11057A   25287.88933813  .00000089  00000+0  00000+0 0  9993
2 37836   0.0650   7.8990 0005424 197.2656 154.6880  1.00271501  4861
